satname,norad_id,inclination_deg,eccentricity,mean_motion_rev_per_day,perigee_km,apogee_km,l1,l2
STARLINK-1008,44714,53.1518,0.0003024,15.47557006,421.8182345512005,425.9320915074013,1 44714U 19074B   26149.40526762  .00065666  00000+0  12530-2 0  9996,2 44714  53.1518 158.4916 0003024  51.3453 308.7825 15.47557006361305
STARLINK-1012,44718,53.156,0.0002846,15.47809921,421.1985268396811,425.06981038885715,1 44718U 19074F   26149.59857149  .00066079  00000+0  12497-2 0  9997,2 44718  53.1560 157.8687 0002846  47.5785 312.5464 15.47809921361320
STARLINK-1017,44723,53.0466,0.0005529,15.30540006,470.41140356993674,477.98871789169243,1 44723U 19074L   26149.34385799  .00045721  00000+0  15296-2 0  9994,2 44723  53.0466 157.3584 0005529   7.6643 352.4440 15.30540006361293
STARLINK-1020,44725,53.1581,0.0004577,15.5290438,405.1450577284277,411.3573174753583,1 44725U 19074N   26149.52263308  .00062952  00000+0  99478-3 0  9997,2 44725  53.1581 182.6301 0004577  29.2303 330.8963 15.52904380360952
STARLINK-1036,44741,53.0409,0.000306,15.67996888,362.57019621512336,366.69677175132074,1 44741U 19074AE  26149.29735947  .00062514  00000+0  55447-3 0  9994,2 44741  53.0409 153.9768 0003060 345.7363  14.3566 15.67996888361330
STARLINK-1039,44744,53.059,0.000358,15.27818706,479.87836869889634,484.79046623380236,1 44744U 19074AH  26149.55255715  .00030076  00000+0  11006-2 0  9996,2 44744  53.0590 201.5854 0003580  14.0606 346.0491 15.27818706360691
STARLINK-1042,44747,53.0428,0.0003534,15.53601927,403.82211072297196,408.6172940402157,1 44747U 19074AL  26149.02735818  .00033097  00000+0  51540-3 0  9992,2 44747  53.0428  68.1548 0003534  73.7730 286.3668 15.53601927362542
STARLINK-1043,44748,53.0478,0.0001111,15.61691534,382.0195168288046,383.5217905094505,1 44748U 19074AM  26149.29254123  .00043080  00000+0  49372-3 0  9990,2 44748  53.0478 163.7963 0001111  65.4734 294.6394 15.61691534361204
STARLINK-1046,44751,53.0475,0.0007456,15.53757013,400.71016797679476,410.8263274822084,1 44751U 19074AQ  26149.47077489  .00038221  00000+0  58988-3 0  9996,2 44751  53.0475 183.9883 0007456  32.4152 327.7314 15.53757013360931
STARLINK-1047,44752,53.0674,0.0003803,15.34209207,460.6685887527037,465.8721632028719,1 44752U 19074AR  26149.18315705  .00010553  00000+0  32495-3 0  9994,2 44752  53.0674 129.4688 0003803  93.6103 266.5333 15.34209207361699
STARLINK-1048,44753,53.0438,0.0007239,15.66204533,364.89194572286215,374.66157526530606,1 44753U 19074AS  26149.34292716  .00056829  00000+0  54222-3 0  9997,2 44753  53.0438 135.6272 0007239  26.4444 333.6939 15.66204533361594
STARLINK-1063,44768,53.1558,0.0002025,15.47564309,422.47636062354104,425.23116688286154,1 44768U 19074BH  26149.54701962  .00061346  00000+0  11715-2 0  9992,2 44768  53.1558 198.8355 0002025  25.6514 334.4595 15.47564309360768
STARLINK-1067,44771,53.042,0.0006993,15.72998963,345.6261822153674,355.0366181198415,1 44771U 19074BL  26149.31851990  .00084586  00000+0  60539-3 0  9998,2 44771  53.0420 168.0931 0006993 355.0967   4.9981 15.72998963361144
STARLINK-1068,44772,53.0411,0.0002415,15.73775913,346.49233044567154,349.7411109927798,1 44772U 19074BM  26149.58155335  .00079300  00000+0  55024-3 0  9999,2 44772  53.0411 140.4875 0002415  79.6725 280.4566 15.73775913361545
STARLINK-1114,44927,53.0417,0.0002342,15.64113419,374.20798814240334,377.371527435751,1 44927U 20001P   26149.60322427  .00099403  00000+0  10222-2 0  9990,2 44927  53.0417 296.7542 0002342 335.8432  24.2471 15.64113419352704
STARLINK-1123,44930,53.1449,0.0003516,15.56357974,395.8254741563642,400.5905999864317,1 44930U 20001S   26149.53351708  .00089404  00000+0  12386-2 0  9993,2 44930  53.1449 323.4690 0003516 263.2118  96.8494 15.56357974352331
STARLINK-1094,44941,53.1537,0.0004589,15.53224901,404.2036916123561,410.43138178613845,1 44941U 20001AD  26149.60075128  .00096197  00000+0  14925-2 0  9990,2 44941  53.1537 297.9276 0004589 299.0242  61.0308 15.53224901352701
STARLINK-1122,44949,53.1568,0.0004013,15.52590278,406.44270726441664,411.8901970151046,1 44949U 20001AM  26149.41655418  .00072834  00000+0  11615-2 0  9998,2 44949  53.1568 299.3982 0004013 306.7608  53.3034 15.52590278352664
STARLINK-1080,44961,53.0457,0.0001424,15.66601926,367.6748294850404,369.59631031294794,1 44961U 20001AZ  26149.00004630 -.00056409  00000+0 -52704-3 0  9998,2 44961  53.0457 260.2578 0001424  29.7287  40.5991 15.66601926  5988
STARLINK-1090,44968,53.1503,0.0002497,15.49136304,417.55410436213515,420.94872013521126,1 44968U 20001BG  26149.57444287  .00067826  00000+0  12243-2 0  9999,2 44968  53.1503 286.1208 0002497 311.3725  48.7069 15.49136304352865
STARLINK-1132,45044,53.152,0.0002766,15.54092285,402.9163707595553,406.668687375035,1 45044U 20006A   26149.51540819  .00052002  00000+0  78967-3 0  9998,2 45044  53.1520 227.7776 0002766   2.9266 357.1761 15.54092285349455
STARLINK-1131,45047,53.1582,0.0003697,15.5092371,411.51678324963723,416.5389099372096,1 45047U 20006D   26149.51041734  .00062003  00000+0  10521-2 0  9996,2 45047  53.1582 260.4166 0003697 333.2670  26.8149 15.50923710348996
STARLINK-1134,45048,53.0259,0.0008018,15.55862383,394.2125192343592,405.0813735708107,1 45048U 20006E   26149.58858024  .00125047  00000+0  17518-2 0  9993,2 45048  53.0259 210.3932 0008018  30.3698 329.7776 15.55862383349680
STARLINK-1156,45054,53.1588,0.0002877,15.34135489,461.5211996451453,465.4578715537291,1 45054U 20006L   26149.55245590  .00040091  00000+0  12013-2 0  9995,2 45054  53.1588 264.6922 0002877 326.4090  33.6729 15.34135489348939
STARLINK-1166,45060,53.0462,0.000436,15.57746418,391.22813247387876,397.13359365046927,1 45060U 20006S   26149.53902358  .00089033  00000+0  11711-2 0  9995,2 45060  53.0462 243.7347 0004360 334.7404  25.3394 15.57746418349218
STARLINK-1169,45061,53.1554,0.0003893,15.37285116,451.4816755180236,456.80128754374346,1 45061U 20006T   26149.54129499  .00053670  00000+0  14480-2 0  9998,2 45061  53.1554 263.5420 0003893 291.5079  68.5509 15.37285116348950
STARLINK-1171,45062,53.0403,0.0002695,15.72991776,348.53856731116593,352.165222825608,1 45062U 20006U   26149.57757007  .00071804  00000+0  51608-3 0  9997,2 45062  53.0403 210.4691 0002695 332.0875  27.9998 15.72991776349685
STARLINK-1133,45064,53.1582,0.0004162,15.34154214,460.5864037313995,466.2813273198635,1 45064U 20006W   26149.58859655  .00045724  00000+0  13665-2 0  9994,2 45064  53.1582 241.2992 0004162 338.5503  21.5324 15.34154214349276
STARLINK-1167,45071,53.1568,0.0003069,15.36466461,454.4705964644654,458.6657384962655,1 45071U 20006AD  26149.54042096  .00049373  00000+0  13694-2 0  9997,2 45071  53.1568 240.7469 0003069 291.3922  68.6754 15.36466461349278
STARLINK-1168,45072,53.1582,0.0003821,15.34261375,460.5012514420523,465.7293364450843,1 45072U 20006AE  26149.50398537  .00044132  00000+0  13152-2 0  9995,2 45072  53.1582 241.9005 0003821 343.6005  16.4873 15.34261375349259
STARLINK-1172,45074,53.1562,0.001998,15.3977473,433.1387221014638,460.41107003815887,1 45074U 20006AG  26149.50385883  .02995180  00000+0  65449-1 0  9992,2 45074  53.1562 240.3172 0019980 292.8703  67.0192 15.39774730349277
STARLINK-1153,45080,53.1585,0.0004227,15.36471167,453.6651876564101,459.44323560672365,1 45080U 20006AN  26149.52376417  .00046808  00000+0  12989-2 0  9998,2 45080  53.1585 240.7407 0004227 304.2703  55.7900 15.36471167349276
STARLINK-1151,45081,53.0483,0.0004107,15.76387254,337.92706345556235,343.44590506553413,1 45081U 20006AP  26149.43923596  .00094299  00000+0  58220-3 0  9991,2 45081  53.0483 200.0849 0004107 342.7397  17.3482 15.76387254349811
STARLINK-1185,45087,53.1591,0.0005133,15.44797011,428.4789501798841,435.47021072837833,1 45087U 20006AV  26149.52125617  .00055575  00000+0  11684-2 0  9991,2 45087  53.1591 221.4275 0005133 346.8051  13.2821 15.44797011349543
STARLINK-1183,45088,53.1585,0.0004038,15.34048313,460.9859743210027,466.5114812347556,1 45088U 20006AW  26149.48239114  .00043940  00000+0  13184-2 0  9995,2 45088  53.1585 226.6023 0004038 345.6512  14.4375 15.34048313349468
STARLINK-1152,45096,53.0337,0.0004422,15.47603793,420.7302813571241,426.74585966948507,1 45096U 20006BE  26149.48453839  .00058921  00000+0  11240-2 0  9992,2 45096  53.0337 182.5949 0004422  34.7352 325.3943 15.47603793350069
STARLINK-1184,45098,53.0514,0.0004064,15.13825808,521.7403602201321,527.3508606458918,1 45098U 20006BG  26149.49899952  .00025003  00000+0  13795-2 0  9997,2 45098  53.0514 239.3942 0004064  13.1551 346.9546 15.13825808349260
STARLINK-1193,45100,53.0464,0.0004161,15.66839845,365.1455226294074,370.75961836997703,1 45100U 20006BJ  26149.39909850  .00055309  00000+0  51507-3 0  9995,2 45100  53.0464 196.1289 0004161 312.7443  47.3222 15.66839845349861
STARLINK-1143,45179,53.0355,0.0005656,15.85811121,310.2566944558548,317.8268871039854,1 45179U 20012B   26149.58337963  .00249851  00000+0  97611-3 0  9992,2 45179  53.0355 287.7447 0005656 324.0483 259.5137 15.85811121  5992
STARLINK-1202,45183,53.1566,0.0002547,15.33766231,462.8447418907608,466.3304257937707,1 45183U 20012F   26149.03520633  .00041899  00000+0  12694-2 0  9994,2 45183  53.1566  25.4356 0002547 135.8578 224.2628 15.33766231347264
STARLINK-1216,45185,53.1581,0.0003468,15.34072009,461.30553073018564,466.0510138030295,1 45185U 20012H   26148.88590612  .00034006  00000+0  10235-2 0  9993,2 45185  53.1581  26.0121 0003468 137.9486 222.1783 15.34072009347188
STARLINK-1225,45187,53.1573,0.0001957,15.34052978,462.39590282925474,465.07381147414344,1 45187U 20012K   26149.60100557  .00041273  00000+0  12395-2 0  9994,2 45187  53.1573  23.1252 0001957 126.8074 233.3109 15.34052978347331
STARLINK-1230,45189,53.1572,0.0002611,15.33927534,462.3213590204996,465.8943792911723,1 45189U 20012M   26149.02503658  .00047081  00000+0  14168-2 0  9994,2 45189  53.1572  25.8839 0002611 132.0236 228.0989 15.33927534344476
